[{"OBJECT_NAME":"TWILIGHT-1 OBJECT D","OBJECT_ID":"2026-004D","EPOCH":"2026-03-09T22:29:50.113248","MEAN_MOTION":14.87523301,"ECCENTRICITY":0.00105116,"INCLINATION":97.8027,"RA_OF_ASC_NODE":69.0991,"ARG_OF_PERICENTER":100.1958,"MEAN_ANOMALY":260.0444,"EPHEMERIS_TYPE":0,"CLASSIFICATION_TYPE":"U","NORAD_CAT_ID":67366,"ELEMENT_SET_NO":999,"REV_AT_EPOCH":853,"BSTAR":0.00074325575,"MEAN_MOTION_DOT":6.698e-5,"MEAN_MOTION_DDOT":0},{"OBJECT_NAME":"NOAA 16 DEB","OBJECT_ID":"2000-055BD","EPOCH":"2026-03-09T18:39:37.734048","MEAN_MOTION":14.80724367,"ECCENTRICITY":0.00275677,"INCLINATION":98.997,"RA_OF_ASC_NODE":4.8082,"ARG_OF_PERICENTER":229.8515,"MEAN_ANOMALY":130.0279,"EPHEMERIS_TYPE":0,"CLASSIFICATION_TYPE":"U","NORAD_CAT_ID":41094,"ELEMENT_SET_NO":999,"REV_AT_EPOCH":53865,"BSTAR":0.004036688,"MEAN_MOTION_DOT":0.00031339,"MEAN_MOTION_DDOT":0}]
